{"type": "FeatureCollection", "features": [ {"type": "Feature", "properties": {"norad_id": 30196, "name": "FENGYUN 1C DEB", "group": "fengyun-1c-debris", "lat": 16.528326225477716, "lon": 71.63331376270315, "alt_km": 775.2905477390132, "timestamp": "2025-12-07T16:44:04.185830+00:00", "meta": {"OBJECT_NAME": "FENGYUN 1C DEB", "OBJECT_ID": "1999-025VD", "EPOCH": "2025-12-06T17:46:50.513952", "MEAN_MOTION": 14.25844992, "ECCENTRICITY": 0.00870554, "INCLINATION": 98.6405, "RA_OF_ASC_NODE": 73.2767, "ARG_OF_PERICENTER": 80.4405, "MEAN_ANOMALY": 70.7644, "EPHEMERIS_TYPE": 0, "CLASSIFICATION_TYPE": "U", "NORAD_CAT_ID": 30196, "ELEMENT_SET_NO": 999, "REV_AT_EPOCH": 98279, "BSTAR": 0.00011785018, "MEAN_MOTION_DOT": 2.49e-06, "MEAN_MOTION_DDOT": 0}, "tle": {"line1": "1 30196U 99025VD  25340.74086243  .00000249  00000+0  11785-3 0  9991", "line2": "2 30196  98.6405  73.2767 0087055  80.4405  70.7644 14.25844992982792"}}, "geometry": {"type": "Point", "coordinates": [71.63331376270315, 16.528326225477716]}}, {"type": "Feature", "properties": {"norad_id": 30197, "name": "FENGYUN 1C DEB", "group": "fengyun-1c-debris", "lat": 16.88874121269977, "lon": -95.87963482609683, "alt_km": 802.5505531013205, "timestamp": "2025-12-07T16:44:04.185841+00:00", "meta": {"OBJECT_NAME": "FENGYUN 1C DEB", "OBJECT_ID": "1999-025VE", "EPOCH": "2025-12-06T19:13:20.460864", "MEAN_MOTION": 14.37150149, "ECCENTRICITY": 0.00568783, "INCLINATION": 98.9378, "RA_OF_ASC_NODE": 265.9283, "ARG_OF_PERICENTER": 232.5206, "MEAN_ANOMALY": 189.5353, "EPHEMERIS_TYPE": 0, "CLASSIFICATION_TYPE": "U", "NORAD_CAT_ID": 30197, "ELEMENT_SET_NO": 999, "REV_AT_EPOCH": 98401, "BSTAR": 0.001519003, "MEAN_MOTION_DOT": 4.556e-05, "MEAN_MOTION_DDOT": 0}, "tle": {"line1": "1 30197U 99025VE  25340.80093126  .00004556  00000+0  15190-2 0  9995", "line2": "2 30197  98.9378 265.9283 0056878 232.5206 189.5353 14.37150149984016"}}, "geometry": {"type": "Point", "coordinates": [-95.87963482609683, 16.88874121269977]}}, {"type": "Feature", "properties": {"norad_id": 30198, "name": "FENGYUN 1C DEB", "group": "fengyun-1c-debris", "lat": 81.45429156785745, "lon": 14.284367666789498, "alt_km": 757.5986472659342, "timestamp": "2025-12-07T16:44:04.185851+00:00", "meta": {"OBJECT_NAME": "FENGYUN 1C DEB", "OBJECT_ID": "1999-025VF", "EPOCH": "2025-12-06T21:01:24.900096", "MEAN_MOTION": 14.50200002, "ECCENTRICITY": 0.01070523, "INCLINATION": 98.4491, "RA_OF_ASC_NODE": 111.8981, "ARG_OF_PERICENTER": 216.1371, "MEAN_ANOMALY": 270.9025, "EPHEMERIS_TYPE": 0, "CLASSIFICATION_TYPE": "U", "NORAD_CAT_ID": 30198, "ELEMENT_SET_NO": 999, "REV_AT_EPOCH": 98422, "BSTAR": 0.0036097796, "MEAN_MOTION_DOT": 0.00015091, "MEAN_MOTION_DDOT": 0}, "tle": {"line1": "1 30198U 99025VF  25340.87598264  .00015091  00000+0  36098-2 0  9992", "line2": "2 30198  98.4491 111.8981 0107052 216.1371 270.9025 14.50200002984227"}}, "geometry": {"type": "Point", "coordinates": [14.284367666789498, 81.45429156785745]}}, {"type": "Feature", "properties": {"norad_id": 30199, "name": "FENGYUN 1C DEB", "group": "fengyun-1c-debris", "lat": -36.05560037921726, "lon": 11.708059453703331, "alt_km": 714.1468074774766, "timestamp": "2025-12-07T16:44:04.185861+00:00", "meta": {"OBJECT_NAME": "FENGYUN 1C DEB", "OBJECT_ID": "1999-025VG", "EPOCH": "2025-12-06T20:02:10.701312", "MEAN_MOTION": 14.38461162, "ECCENTRICITY": 0.00779824, "INCLINATION": 98.385, "RA_OF_ASC_NODE": 4.7014, "ARG_OF_PERICENTER": 326.5608, "MEAN_ANOMALY": 213.5771, "EPHEMERIS_TYPE": 0, "CLASSIFICATION_TYPE": "U", "NORAD_CAT_ID": 30199, "ELEMENT_SET_NO": 999, "REV_AT_EPOCH": 98325, "BSTAR": 0.0017376903, "MEAN_MOTION_DOT": 5.455e-05, "MEAN_MOTION_DDOT": 0}, "tle": {"line1": "1 30199U 99025VG  25340.83484608  .00005455  00000+0  17377-2 0  9997", "line2": "2 30199  98.3850   4.7014 0077982 326.5608 213.5771 14.38461162983255"}}, "geometry": {"type": "Point", "coordinates": [11.708059453703331, -36.05560037921726]}}, {"type": "Feature", "properties": {"norad_id": 30200, "name": "FENGYUN 1C DEB", "group": "fengyun-1c-debris", "lat": -50.958965480267146, "lon": -15.135357398964546, "alt_km": 873.5088973122865, "timestamp": "2025-12-07T16:44:04.185871+00:00", "meta": {"OBJECT_NAME": "FENGYUN 1C DEB", "OBJECT_ID": "1999-025VH", "EPOCH": "2025-12-06T19:24:05.427360", "MEAN_MOTION": 14.22270157, "ECCENTRICITY": 0.0147504, "INCLINATION": 99.1132, "RA_OF_ASC_NODE": 175.3617, "ARG_OF_PERICENTER": 116.1262, "MEAN_ANOMALY": 245.5175, "EPHEMERIS_TYPE": 0, "CLASSIFICATION_TYPE": "U", "NORAD_CAT_ID": 30200, "ELEMENT_SET_NO": 999, "REV_AT_EPOCH": 97898, "BSTAR": 0.00026904613, "MEAN_MOTION_DOT": 6.21e-06, "MEAN_MOTION_DDOT": 0}, "tle": {"line1": "1 30200U 99025VH  25340.80839615  .00000621  00000+0  26905-3 0  9997", "line2": "2 30200  99.1132 175.3617 0147504 116.1262 245.5175 14.22270157978983"}}, "geometry": {"type": "Point", "coordinates": [-15.135357398964546, -50.958965480267146]}}, {"type": "Feature", "properties": {"norad_id": 30201, "name": "FENGYUN 1C DEB", "group": "fengyun-1c-debris", "lat": 50.18569417597392, "lon": -52.963469668414646, "alt_km": 830.4619314150787, "timestamp": "2025-12-07T16:44:04.185881+00:00", "meta": {"OBJECT_NAME": "FENGYUN 1C DEB", "OBJECT_ID": "1999-025VJ", "EPOCH": "2025-12-05T21:56:27.512448", "MEAN_MOTION": 14.22919692, "ECCENTRICITY": 0.00288291, "INCLINATION": 99.4008, "RA_OF_ASC_NODE": 113.6714, "ARG_OF_PERICENTER": 332.5508, "MEAN_ANOMALY": 27.4144, "EPHEMERIS_TYPE": 0, "CLASSIFICATION_TYPE": "U", "NORAD_CAT_ID": 30201, "ELEMENT_SET_NO": 999, "REV_AT_EPOCH": 97730, "BSTAR": 0.00074646454, "MEAN_MOTION_DOT": 1.636e-05, "MEAN_MOTION_DDOT": 0}, "tle": {"line1": "1 30201U 99025VJ  25339.91420732  .00001636  00000+0  74646-3 0  9996", "line2": "2 30201  99.4008 113.6714 0028829 332.5508  27.4144 14.22919692977309"}}, "geometry": {"type": "Point", "coordinates": [-52.963469668414646, 50.18569417597392]}}, {"type": "Feature", "properties": {"norad_id": 30202, "name": "FENGYUN 1C DEB", "group": "fengyun-1c-debris", "lat": -63.14779090332938, "lon": 96.31941289688523, "alt_km": 746.5269633446451, "timestamp": "2025-12-07T16:44:04.185891+00:00", "meta": {"OBJECT_NAME": "FENGYUN 1C DEB", "OBJECT_ID": "1999-025VK", "EPOCH": "2025-12-06T19:32:05.286912", "MEAN_MOTION": 14.52207863, "ECCENTRICITY": 0.00393087, "INCLINATION": 98.641, "RA_OF_ASC_NODE": 77.9313, "ARG_OF_PERICENTER": 77.2607, "MEAN_ANOMALY": 283.2977, "EPHEMERIS_TYPE": 0, "CLASSIFICATION_TYPE": "U", "NORAD_CAT_ID": 30202, "ELEMENT_SET_NO": 999, "REV_AT_EPOCH": 98203, "BSTAR": 0.0040464156, "MEAN_MOTION_DOT": 0.00016574, "MEAN_MOTION_DDOT": 0}, "tle": {"line1": "1 30202U 99025VK  25340.81395008  .00016574  00000+0  40464-2 0  9992", "line2": "2 30202  98.6410  77.9313 0039308  77.2607 283.2977 14.52207863982037"}}, "geometry": {"type": "Point", "coordinates": [96.31941289688523, -63.14779090332938]}}, {"type": "Feature", "properties": {"norad_id": 30205, "name": "FENGYUN 1C DEB", "group": "fengyun-1c-debris", "lat": 70.39079104734752, "lon": 66.80711612737305, "alt_km": 973.2959032835488, "timestamp": "2025-12-07T16:44:04.185917+00:00", "meta": {"OBJECT_NAME": "FENGYUN 1C DEB", "OBJECT_ID": "1999-025VN", "EPOCH": "2025-12-06T20:15:25.110432", "MEAN_MOTION": 13.88033648, "ECCENTRICITY": 0.01207824, "INCLINATION": 98.9968, "RA_OF_ASC_NODE": 92.3877, "ARG_OF_PERICENTER": 195.7799, "MEAN_ANOMALY": 296.7365, "EPHEMERIS_TYPE": 0, "CLASSIFICATION_TYPE": "U", "NORAD_CAT_ID": 30205, "ELEMENT_SET_NO": 999, "REV_AT_EPOCH": 95556, "BSTAR": 0.00066320036, "MEAN_MOTION_DOT": 7.95e-06, "MEAN_MOTION_DDOT": 0}, "tle": {"line1": "1 30205U 99025VN  25340.84404063  .00000795  00000+0  66320-3 0  9998", "line2": "2 30205  98.9968  92.3877 0120782 195.7799 296.7365 13.88033648955566"}}, "geometry": {"type": "Point", "coordinates": [66.80711612737305, 70.39079104734752]}}, {"type": "Feature", "properties": {"norad_id": 30206, "name": "FENGYUN 1C DEB", "group": "fengyun-1c-debris", "lat": -26.39234940842137, "lon": -14.799271198681902, "alt_km": 711.5498222673123, "timestamp": "2025-12-07T16:44:04.185930+00:00", "meta": {"OBJECT_NAME": "FENGYUN 1C DEB", "OBJECT_ID": "1999-025VP", "EPOCH": "2025-12-06T22:37:38.626752", "MEAN_MOTION": 14.49118191, "ECCENTRICITY": 0.01462834, "INCLINATION": 98.231, "RA_OF_ASC_NODE": 340.3454, "ARG_OF_PERICENTER": 53.9702, "MEAN_ANOMALY": 307.4947, "EPHEMERIS_TYPE": 0, "CLASSIFICATION_TYPE": "U", "NORAD_CAT_ID": 30206, "ELEMENT_SET_NO": 999, "REV_AT_EPOCH": 99317, "BSTAR": 0.00077388652, "MEAN_MOTION_DOT": 3.324e-05, "MEAN_MOTION_DDOT": 0}, "tle": {"line1": "1 30206U 99025VP  25340.94280818  .00003324  00000+0  77389-3 0  9998", "line2": "2 30206  98.2310 340.3454 0146283  53.9702 307.4947 14.49118191993171"}}, "geometry": {"type": "Point", "coordinates": [-14.799271198681902, -26.39234940842137]}}, {"type": "Feature", "properties": {"norad_id": 30207, "name": "FENGYUN 1C DEB", "group": "fengyun-1c-debris", "lat": 47.417303473312934, "lon": -77.6796389475304, "alt_km": 796.1179145957076, "timestamp": "2025-12-07T16:44:04.185942+00:00", "meta": {"OBJECT_NAME": "FENGYUN 1C DEB", "OBJECT_ID": "1999-025VQ", "EPOCH": "2025-12-06T18:13:26.829120", "MEAN_MOTION": 13.79129527, "ECCENTRICITY": 0.02603506, "INCLINATION": 98.5741, "RA_OF_ASC_NODE": 92.0216, "ARG_OF_PERICENTER": 164.5064, "MEAN_ANOMALY": 354.5939, "EPHEMERIS_TYPE": 0, "CLASSIFICATION_TYPE": "U", "NORAD_CAT_ID": 30207, "ELEMENT_SET_NO": 999, "REV_AT_EPOCH": 94980, "BSTAR": 0.00055232099, "MEAN_MOTION_DOT": 6.91e-06, "MEAN_MOTION_DDOT": 0}, "tle": {"line1": "1 30207U 99025VQ  25340.75933830  .00000691  00000+0  55232-3 0  9994", "line2": "2 30207  98.5741  92.0216 0260350 164.5064 354.5939 13.79129527949804"}}, "geometry": {"type": "Point", "coordinates": [-77.6796389475304, 47.417303473312934]}}]}